start=new Date('2023-04-10T00:00:00.000Z').valueOf();
sats=[{"ECCENTRICITY":"0.00010570","MEAN_MOTION_DDOT":"0.0000000000000","INCLINATION":"53.0545","REV_AT_EPOCH":"16943","GP_ID":"229805437","NORAD_CAT_ID":"45399","BSTAR":"0.00155770000000","OBJECT_NAME":"STARLINK-1255","LAUNCH_DATE":"2020-03-18","DECAY_DATE":null,"RA_OF_ASC_NODE":"237.6174","SEMIMAJOR_AXIS":"6925.249","EPOCH":"2023-04-09T16:23:49.015680","ELEMENT_SET_NO":"999","TIME_SYSTEM":"UTC","FILE":"3884641","MEAN_MOTION_DOT":"0.00023017","PERIOD":"95.590","MEAN_ELEMENT_THEORY":"SGP4","EPHEMERIS_TYPE":"0","CENTER_NAME":"EARTH","TLE_LINE2":"2 45399  53.0545 237.6174 0001057  66.0978 294.0121 15.06432519169431","COUNTRY_CODE":"US","CLASSIFICATION_TYPE":"U","MEAN_MOTION":"15.06432519","TLE_LINE1":"1 45399U 20019AR  23099.68320620  .00023017  00000-0  15577-2 0  9992","SITE":"AFETR","OBJECT_TYPE":"PAYLOAD","PERIAPSIS":"546.382","ARG_OF_PERICENTER":"66.0978","REF_FRAME":"TEME","OBJECT_ID":"2020-019AR","APOAPSIS":"547.846","MEAN_ANOMALY":"294.0121","RCS_SIZE":"LARGE"},{"ELEMENT_SET_NO":"999","TIME_SYSTEM":"UTC","FILE":"3884641","MEAN_MOTION_DOT":"0.00032047","PERIOD":"95.416","MEAN_ELEMENT_THEORY":"SGP4","OBJECT_NAME":"STARLINK-1213","LAUNCH_DATE":"2020-03-18","DECAY_DATE":null,"RA_OF_ASC_NODE":"236.4391","SEMIMAJOR_AXIS":"6916.839","EPOCH":"2023-04-09T20:34:31.408608","BSTAR":"0.00200360000000","ECCENTRICITY":"0.00023390","INCLINATION":"53.0559","MEAN_MOTION_DDOT":"0.0000000000000","REV_AT_EPOCH":"16939","GP_ID":"229806686","NORAD_CAT_ID":"45400","REF_FRAME":"TEME","APOAPSIS":"540.322","OBJECT_ID":"2020-019AS","MEAN_ANOMALY":"25.3608","RCS_SIZE":"LARGE","SITE":"AFETR","OBJECT_TYPE":"PAYLOAD","PERIAPSIS":"537.086","ARG_OF_PERICENTER":"334.7267","TLE_LINE2":"2 45400  53.0559 236.4391 0002339 334.7267  25.3608 15.09180664169391","CLASSIFICATION_TYPE":"U","COUNTRY_CODE":"US","MEAN_MOTION":"15.09180664","TLE_LINE1":"1 45400U 20019AS  23099.85730797  .00032047  00000-0  20036-2 0  9993","EPHEMERIS_TYPE":"0","CENTER_NAME":"EARTH"},{"CENTER_NAME":"EARTH","EPHEMERIS_TYPE":"0","MEAN_MOTION":"15.06436227","TLE_LINE1":"1 45401U 20019AT  23099.76061208  .00026061  00000-0  17603-2 0  9993","TLE_LINE2":"2 45401  53.0527 237.2720 0001319  65.5542 294.5584 15.06436227169449","CLASSIFICATION_TYPE":"U","COUNTRY_CODE":"US","PERIAPSIS":"546.189","OBJECT_TYPE":"PAYLOAD","ARG_OF_PERICENTER":"65.5542","SITE":"AFETR","MEAN_ANOMALY":"294.5584","RCS_SIZE":"LARGE","REF_FRAME":"TEME","APOAPSIS":"548.016","OBJECT_ID":"2020-019AT","REV_AT_EPOCH":"16944","GP_ID":"229806429","NORAD_CAT_ID":"45401","ECCENTRICITY":"0.00013190","MEAN_MOTION_DDOT":"0.0000000000000","INCLINATION":"53.0527","BSTAR":"0.00176030000000","RA_OF_ASC_NODE":"237.2720","SEMIMAJOR_AXIS":"6925.238","EPOCH":"2023-04-09T18:15:16.883712","LAUNCH_DATE":"2020-03-18","OBJECT_NAME":"STARLINK-1256","DECAY_DATE":null,"PERIOD":"95.590","MEAN_ELEMENT_THEORY":"SGP4","ELEMENT_SET_NO":"999","TIME_SYSTEM":"UTC","MEAN_MOTION_DOT":"0.00026061","FILE":"3884641"},{"BSTAR":"0.00170130000000","ECCENTRICITY":"0.00007670","INCLINATION":"53.0527","MEAN_MOTION_DDOT":"0.0000000000000","REV_AT_EPOCH":"16944","GP_ID":"229805693","NORAD_CAT_ID":"45402","TIME_SYSTEM":"UTC","ELEMENT_SET_NO":"999","FILE":"3884641","MEAN_MOTION_DOT":"0.00025174","PERIOD":"95.590","MEAN_ELEMENT_THEORY":"SGP4","OBJECT_NAME":"STARLINK-1257","LAUNCH_DATE":"2020-03-18","DECAY_DATE":null,"RA_OF_ASC_NODE":"237.5807","EPOCH":"2023-04-09T16:33:04.140000","SEMIMAJOR_AXIS":"6925.242","TLE_LINE2":"2 45402  53.0527 237.5807 0000767  89.7443 270.3634 15.06434738169446","CLASSIFICATION_TYPE":"U","COUNTRY_CODE":"US","MEAN_MOTION":"15.06434738","TLE_LINE1":"1 45402U 20019AU  23099.68963125  .00025174  00000-0  17013-2 0  9993","EPHEMERIS_TYPE":"0","CENTER_NAME":"EARTH","OBJECT_ID":"2020-019AU","APOAPSIS":"547.638","REF_FRAME":"TEME","RCS_SIZE":"LARGE","MEAN_ANOMALY":"270.3634","SITE":"AFETR","OBJECT_TYPE":"PAYLOAD","PERIAPSIS":"546.576","ARG_OF_PERICENTER":"89.7443"},{"FILE":"3884641","MEAN_MOTION_DOT":"0.00025901","TIME_SYSTEM":"UTC","ELEMENT_SET_NO":"999","MEAN_ELEMENT_THEORY":"SGP4","PERIOD":"95.590","DECAY_DATE":null,"LAUNCH_DATE":"2020-03-18","OBJECT_NAME":"STARLINK-1259","EPOCH":"2023-04-09T18:31:12.108288","SEMIMAJOR_AXIS":"6925.247","RA_OF_ASC_NODE":"237.2208","BSTAR":"0.00174980000000","MEAN_MOTION_DDOT":"0.0000000000000","INCLINATION":"53.0544","ECCENTRICITY":"0.00014030","NORAD_CAT_ID":"45403","REV_AT_EPOCH":"16944","GP_ID":"229805938","OBJECT_ID":"2020-019AV","APOAPSIS":"548.084","REF_FRAME":"TEME","RCS_SIZE":"LARGE","MEAN_ANOMALY":"278.3796","SITE":"AFETR","ARG_OF_PERICENTER":"81.7352","PERIAPSIS":"546.141","OBJECT_TYPE":"PAYLOAD","COUNTRY_CODE":"US","CLASSIFICATION_TYPE":"U","TLE_LINE2":"2 45403  53.0544 237.2208 0001403  81.7352 278.3796 15.06433029169446","TLE_LINE1":"1 45403U 20019AV  23099.77166792  .00025901  00000-0  17498-2 0  9994","MEAN_MOTION":"15.06433029","EPHEMERIS_TYPE":"0","CENTER_NAME":"EARTH"},{"OBJECT_ID":"2020-019AW","APOAPSIS":"547.826","REF_FRAME":"TEME","RCS_SIZE":"LARGE","MEAN_ANOMALY":"301.6336","SITE":"AFETR","ARG_OF_PERICENTER":"58.4759","OBJECT_TYPE":"PAYLOAD","PERIAPSIS":"546.318","COUNTRY_CODE":"US","CLASSIFICATION_TYPE":"U","TLE_LINE2":"2 45404  53.0527 237.1663 0001089  58.4759 301.6336 15.06446152169355","TLE_LINE1":"1 45404U 20019AW  23099.78272653  .00027760  00000-0  18729-2 0  9993","MEAN_MOTION":"15.06446152","EPHEMERIS_TYPE":"0","CENTER_NAME":"EARTH","FILE":"3884641","MEAN_MOTION_DOT":"0.00027760","TIME_SYSTEM":"UTC","ELEMENT_SET_NO":"999","MEAN_ELEMENT_THEORY":"SGP4","PERIOD":"95.589","DECAY_DATE":null,"LAUNCH_DATE":"2020-03-18","OBJECT_NAME":"STARLINK-1260","EPOCH":"2023-04-09T18:47:07.572192","SEMIMAJOR_AXIS":"6925.207","RA_OF_ASC_NODE":"237.1663","BSTAR":"0.00187290000000","INCLINATION":"53.0527","MEAN_MOTION_DDOT":"0.0000000000000","ECCENTRICITY":"0.00010890","NORAD_CAT_ID":"45404","GP_ID":"229806186","REV_AT_EPOCH":"16935"},{"OBJECT_TYPE":"PAYLOAD","PERIAPSIS":"546.198","ARG_OF_PERICENTER":"87.9013","SITE":"AFETR","MEAN_ANOMALY":"272.2131","RCS_SIZE":"LARGE","REF_FRAME":"TEME","OBJECT_ID":"2020-019AX","APOAPSIS":"548.070","CENTER_NAME":"EARTH","EPHEMERIS_TYPE":"0","MEAN_MOTION":"15.06425978","TLE_LINE1":"1 45405U 20019AX  23099.70163963  .00017662  00000-0  12008-2 0  9993","TLE_LINE2":"2 45405  53.0538 237.5333 0001352  87.9013 272.2131 15.06425978169347","COUNTRY_CODE":"US","CLASSIFICATION_TYPE":"U","RA_OF_ASC_NODE":"237.5333","SEMIMAJOR_AXIS":"6925.269","EPOCH":"2023-04-09T16:50:21.664032","LAUNCH_DATE":"2020-03-18","OBJECT_NAME":"STARLINK-1263","DECAY_DATE":null,"PERIOD":"95.590","MEAN_ELEMENT_THEORY":"SGP4","ELEMENT_SET_NO":"999","TIME_SYSTEM":"UTC","FILE":"3884641","MEAN_MOTION_DOT":"0.00017662","GP_ID":"229806930","REV_AT_EPOCH":"16934","NORAD_CAT_ID":"45405","ECCENTRICITY":"0.00013520","INCLINATION":"53.0538","MEAN_MOTION_DDOT":"0.0000000000000","BSTAR":"0.00120080000000"},{"ARG_OF_PERICENTER":"74.8049","PERIAPSIS":"546.053","OBJECT_TYPE":"PAYLOAD","SITE":"AFETR","MEAN_ANOMALY":"285.3111","RCS_SIZE":"LARGE","REF_FRAME":"TEME","APOAPSIS":"548.193","OBJECT_ID":"2020-019AY","CENTER_NAME":"EARTH","EPHEMERIS_TYPE":"0","TLE_LINE1":"1 45406U 20019AY  23099.64266942  .00024737  00000-0  16724-2 0  9998","MEAN_MOTION":"15.06429620","COUNTRY_CODE":"US","CLASSIFICATION_TYPE":"U","TLE_LINE2":"2 45406  53.0551 237.8013 0001545  74.8049 285.3111 15.06429620169339","SEMIMAJOR_AXIS":"6925.258","EPOCH":"2023-04-09T15:25:26.637888","RA_OF_ASC_NODE":"237.8013","DECAY_DATE":null,"OBJECT_NAME":"STARLINK-1265","LAUNCH_DATE":"2020-03-18","MEAN_ELEMENT_THEORY":"SGP4","PERIOD":"95.590","MEAN_MOTION_DOT":"0.00024737","FILE":"3884641","ELEMENT_SET_NO":"999","TIME_SYSTEM":"UTC","NORAD_CAT_ID":"45406","REV_AT_EPOCH":"16933","GP_ID":"229805193","MEAN_MOTION_DDOT":"0.0000000000000","INCLINATION":"53.0551","ECCENTRICITY":"0.00015450","BSTAR":"0.00167240000000"},{"PERIAPSIS":"546.070","OBJECT_TYPE":"PAYLOAD","ARG_OF_PERICENTER":"86.2069","SITE":"AFETR","MEAN_ANOMALY":"273.9096","RCS_SIZE":"LARGE","REF_FRAME":"TEME","APOAPSIS":"548.211","OBJECT_ID":"2020-019AZ","CENTER_NAME":"EARTH","EPHEMERIS_TYPE":"0","MEAN_MOTION":"15.06423879","TLE_LINE1":"1 45407U 20019AZ  23099.78912766  .00000061  00000-0  22956-4 0  9996","TLE_LINE2":"2 45407  53.0529 237.1416 0001546  86.2069 273.9096 15.06423879169352","CLASSIFICATION_TYPE":"U","COUNTRY_CODE":"US","RA_OF_ASC_NODE":"237.1416","SEMIMAJOR_AXIS":"6925.275","EPOCH":"2023-04-09T18:56:20.629824","OBJECT_NAME":"STARLINK-1275","LAUNCH_DATE":"2020-03-18","DECAY_DATE":null,"PERIOD":"95.591","MEAN_ELEMENT_THEORY":"SGP4","ELEMENT_SET_NO":"999","TIME_SYSTEM":"UTC","MEAN_MOTION_DOT":"0.00000061","FILE":"3884641","GP_ID":"229805438","REV_AT_EPOCH":"16935","NORAD_CAT_ID":"45407","ECCENTRICITY":"0.00015460","MEAN_MOTION_DDOT":"0.0000000000000","INCLINATION":"53.0529","BSTAR":"0.00002295600000"},{"BSTAR":"0.00146150000000","MEAN_MOTION_DDOT":"0.0000000000000","INCLINATION":"53.0529","ECCENTRICITY":"0.00012510","NORAD_CAT_ID":"45408","GP_ID":"229806687","REV_AT_EPOCH":"16893","FILE":"3884641","MEAN_MOTION_DOT":"0.00021585","TIME_SYSTEM":"UTC","ELEMENT_SET_NO":"999","MEAN_ELEMENT_THEORY":"SGP4","PERIOD":"95.589","DECAY_DATE":null,"LAUNCH_DATE":"2020-03-18","OBJECT_NAME":"STARLINK-1278","EPOCH":"2023-04-09T17:39:25.326720","SEMIMAJOR_AXIS":"6925.187","RA_OF_ASC_NODE":"267.3788","COUNTRY_CODE":"US","CLASSIFICATION_TYPE":"U","TLE_LINE2":"2 45408  53.0529 267.3788 0001251  72.5848 287.5277 15.06452611168937","TLE_LINE1":"1 45408U 20019BA  23099.73570980  .00021585  00000-0  14615-2 0  9995","MEAN_MOTION":"15.06452611","EPHEMERIS_TYPE":"0","CENTER_NAME":"EARTH","OBJECT_ID":"2020-019BA","APOAPSIS":"547.919","REF_FRAME":"TEME","RCS_SIZE":"LARGE","MEAN_ANOMALY":"287.5277","SITE":"AFETR","ARG_OF_PERICENTER":"72.5848","OBJECT_TYPE":"PAYLOAD","PERIAPSIS":"546.186"}];
